[{"OBJECT_NAME":"STARLINK-5317","OBJECT_ID":"2023-010Q","EPOCH":"2026-03-09T22:25:22.359648","MEAN_MOTION":14.98332531,"ECCENTRICITY":0.00032076,"INCLINATION":70.0002,"RA_OF_ASC_NODE":43.7962,"ARG_OF_PERICENTER":268.2571,"MEAN_ANOMALY":91.822,"EPHEMERIS_TYPE":0,"CLASSIFICATION_TYPE":"U","NORAD_CAT_ID":55283,"ELEMENT_SET_NO":999,"REV_AT_EPOCH":17281,"BSTAR":3.48302e-6,"MEAN_MOTION_DOT":-5.1e-7,"MEAN_MOTION_DDOT":0},{"OBJECT_NAME":"LEMUR-2-KARENDARRELL","OBJECT_ID":"2025-135BU","EPOCH":"2026-03-09T21:08:31.963200","MEAN_MOTION":14.98475386,"ECCENTRICITY":0.00078103,"INCLINATION":97.7605,"RA_OF_ASC_NODE":185.4061,"ARG_OF_PERICENTER":183.1489,"MEAN_ANOMALY":176.9686,"EPHEMERIS_TYPE":0,"CLASSIFICATION_TYPE":"U","NORAD_CAT_ID":64841,"ELEMENT_SET_NO":999,"REV_AT_EPOCH":3913,"BSTAR":0.00091115502,"MEAN_MOTION_DOT":0.00010849,"MEAN_MOTION_DDOT":0}]
